NORAD_CAT_ID,OBJECT_NAME,OBJECT_TYPE,EPOCH,MEAN_MOTION,ECCENTRICITY,INCLINATION,RA_OF_ASC_NODE,ARG_OF_PERICENTER,MEAN_ANOMALY,BSTAR,MEAN_MOTION_DOT,MEAN_MOTION_DDOT,TLE_LINE0,TLE_LINE1,TLE_LINE2,SEMIMAJOR_AXIS,PERIOD,APOGEE,PERIGEE,DECAYED
52586.0,STARLINK-3910,PAYLOAD,2024-05-12 13:21:42,15.08642236,0.0001456,53.2168,229.5111,112.9215,247.193,-0.00011739,-2.145e-05,0.0,0 STARLINK-3910,1 52586U 22051BC  24133.55674042 -.00002145  00000-0 -11739-3 0  9990,2 52586  53.2168 229.5111 0001456 112.9215 247.1930 15.08642236111096,6918.485,95.45,541.357,539.343,0.0
52586.0,STARLINK-3910,PAYLOAD,2024-05-12 16:32:30,15.08629894,0.0001316,53.2169,228.9161,112.7648,247.3483,0.00092457,0.00014373,0.0,0 STARLINK-3910,1 52586U 22051BC  24133.68923934  .00014373  00000-0  92457-3 0  9991,2 52586  53.2169 228.9161 0001316 112.7648 247.3483 15.08629894111043,6918.523,95.451,541.298,539.477,0.0
52586.0,STARLINK-3910,PAYLOAD,2024-05-12 22:54:04,15.08691836,0.0001089,53.2168,227.7252,114.8556,245.2549,0.0046985,0.0007498,0.0,0 STARLINK-3910,1 52586U 22051BC  24133.95422288  .00074980  00000-0  46985-2 0  9991,2 52586  53.2168 227.7252 0001089 114.8556 245.2549 15.08691836111155,6918.333,95.447,540.952,539.445,0.0
52586.0,STARLINK-3910,PAYLOAD,2024-05-13 13:12:32,15.0888401,0.0001287,53.216,225.0494,79.3722,280.7415,0.0018777,0.00029758,0.0,0 STARLINK-3910,1 52586U 22051BC  24134.55037537  .00029758  00000-0  18777-2 0  9998,2 52586  53.2160 225.0494 0001287  79.3722 280.7415 15.08884010111172,6917.746,95.435,540.501,538.721,0.0
52586.0,STARLINK-3910,PAYLOAD,2024-05-14 11:27:52,15.08925966,0.0001359,53.2158,220.8877,82.955,277.1597,0.0015406,0.00024374,0.0,0 STARLINK-3910,1 52586U 22051BC  24135.47769542  .00024374  00000-0  15406-2 0  9993,2 52586  53.2158 220.8877 0001359  82.9550 277.1597 15.08925966111386,6917.618,95.432,540.423,538.543,0.0
52586.0,STARLINK-3910,PAYLOAD,2024-05-14 22:35:32,15.08940469,0.0001369,53.2157,218.8057,85.1981,274.9167,0.0013424,0.000212,0.0,0 STARLINK-3910,1 52586U 22051BC  24135.94134742  .00021200  00000-0  13424-2 0  9996,2 52586  53.2157 218.8057 0001369  85.1981 274.9167 15.08940469111389,6917.573,95.431,540.385,538.491,0.0
52586.0,STARLINK-3910,PAYLOAD,2024-05-15 04:57:05,15.08879402,0.0002871,53.2161,217.6159,98.7687,261.3631,4.1606e-05,3.74e-06,0.0,0 STARLINK-3910,1 52586U 22051BC  24136.20630872  .00000374  00000-0  41606-4 0  9995,2 52586  53.2161 217.6159 0002871  98.7687 261.3631 15.08879402111492,6917.76,95.435,541.611,537.639,0.0
52586.0,STARLINK-3910,PAYLOAD,2024-05-15 12:54:00,15.08854201,0.0001487,53.2166,216.1306,100.3397,259.7763,0.0017061,0.0002698,0.0,0 STARLINK-3910,1 52586U 22051BC  24136.53750573  .00026980  00000-0  17061-2 0  9999,2 52586  53.2166 216.1306 0001487 100.3397 259.7763 15.08854201111548,6917.837,95.437,540.731,538.673,0.0
52586.0,STARLINK-3910,PAYLOAD,2024-05-15 14:29:23,15.08856954,0.0001512,53.2165,215.8329,98.7254,261.391,0.0015813,0.0002498,0.0,0 STARLINK-3910,1 52586U 22051BC  24136.60374495  .00024980  00000-0  15813-2 0  9993,2 52586  53.2165 215.8329 0001512  98.7254 261.3910 15.08856954111482,6917.829,95.436,540.74,538.648,0.0
52586.0,STARLINK-3910,PAYLOAD,2024-05-15 22:26:18,15.08880014,0.0001578,53.2169,214.3446,82.699,277.4181,0.0017348,0.0002746,0.0,0 STARLINK-3910,1 52586U 22051BC  24136.93493719  .00027460  00000-0  17348-2 0  9991,2 52586  53.2169 214.3446 0001578  82.6990 277.4181 15.08880014111539,6917.758,95.435,540.715,538.531,0.0
52586.0,STARLINK-3910,PAYLOAD,2024-05-16 11:09:23,15.08855537,9.21e-05,53.2157,211.9634,95.9614,264.1483,0.00036916,5.595e-05,0.0,0 STARLINK-3910,1 52586U 22051BC  24137.46485275  .00005595  00000-0  36916-3 0  9996,2 52586  53.2157 211.9634 0000921  95.9614 264.1483 15.08855537111685,6917.833,95.437,540.335,539.061,0.0
52586.0,STARLINK-3910,PAYLOAD,2024-05-16 22:17:04,15.08888948,0.0001257,53.2145,209.8824,91.8928,268.2208,0.0014921,0.0002357,0.0,0 STARLINK-3910,1 52586U 22051BC  24137.92852026  .00023570  00000-0  14921-2 0  9993,2 52586  53.2145 209.8824 0001257  91.8928 268.2208 15.08888948111687,6917.731,95.434,540.465,538.726,0.0
52586.0,STARLINK-3910,PAYLOAD,2024-05-17 11:00:09,15.08832754,0.0001652,53.2159,207.5047,100.8201,259.2978,0.0013554,0.00021345,0.0,0 STARLINK-3910,1 52586U 22051BC  24138.45844844  .00021345  00000-0  13554-2 0  9990,2 52586  53.2159 207.5047 0001652 100.8201 259.2978 15.08832754111833,6917.903,95.438,540.91,538.625,0.0
52586.0,STARLINK-3910,PAYLOAD,2024-05-17 22:07:51,15.08847217,0.0001843,53.2156,205.4204,102.3151,257.8047,0.0013099,0.00020625,0.0,0 STARLINK-3910,1 52586U 22051BC  24138.92212921  .00020625  00000-0  13099-2 0  9991,2 52586  53.2156 205.4204 0001843 102.3151 257.8047 15.08847217111836,6917.858,95.437,540.998,538.448,0.0
52586.0,STARLINK-3910,PAYLOAD,2024-05-18 10:50:57,15.08841909,0.0001992,53.215,203.0428,86.82,273.302,0.001942,0.00030756,0.0,0 STARLINK-3910,1 52586U 22051BC  24139.45205398  .00030756  00000-0  19420-2 0  9990,2 52586  53.2150 203.0428 0001992  86.8200 273.3020 15.08841909111980,6917.875,95.437,541.118,538.362,0.0
52586.0,STARLINK-3910,PAYLOAD,2024-05-19 04:20:13,15.08814343,0.0001955,53.2158,199.7702,76.815,283.306,0.0010583,0.00016583,0.0,0 STARLINK-3910,1 52586U 22051BC  24140.18071221  .00016583  00000-0  10583-2 0  9991,2 52586  53.2158 199.7702 0001955  76.8150 283.3060 15.08814343112096,6917.959,95.439,541.176,538.471,0.0
52586.0,STARLINK-3910,PAYLOAD,2024-05-19 10:41:46,15.08830868,0.000154,53.2167,198.5802,86.4676,273.6493,0.00076783,0.0001195,0.0,0 STARLINK-3910,1 52586U 22051BC  24140.44567276  .00011950  00000-0  76783-3 0  9998,2 52586  53.2167 198.5802 0001540  86.4676 273.6493 15.08830868112063,6917.908,95.438,540.839,538.708,0.0
52586.0,STARLINK-3910,PAYLOAD,2024-05-20 04:11:00,15.08856362,0.0001545,53.2167,195.3113,96.6151,263.5017,0.00097267,0.00015233,0.0,0 STARLINK-3910,1 52586U 22051BC  24141.17430865  .00015233  00000-0  97267-3 0  9990,2 52586  53.2167 195.3113 0001545  96.6151 263.5017 15.08856362112246,6917.83,95.437,540.764,538.627,0.0
52586.0,STARLINK-3910,PAYLOAD,2024-05-20 10:32:32,15.08861837,0.0001403,53.2158,194.1207,85.7205,274.3947,0.00082509,0.00012876,0.0,0 STARLINK-3910,1 52586U 22051BC  24141.43926538  .00012876  00000-0  82509-3 0  9999,2 52586  53.2158 194.1207 0001403  85.7205 274.3947 15.08861837112211,6917.814,95.436,540.649,538.708,0.0
52586.0,STARLINK-3910,PAYLOAD,2024-05-21 02:26:23,15.08863051,0.0001521,53.2166,191.1509,94.3122,265.8044,0.00043736,6.684e-05,0.0,0 STARLINK-3910,1 52586U 22051BC  24142.10165787  .00006684  00000-0  43736-3 0  9994,2 52586  53.2166 191.1509 0001521  94.3122 265.8044 15.08863051112388,6917.81,95.436,540.727,538.623,0.0
52586.0,STARLINK-3910,PAYLOAD,2024-05-21 08:47:55,15.08849773,0.0001439,53.2158,189.9548,85.8367,274.279,4.0942e-05,3.64e-06,0.0,0 STARLINK-3910,1 52586U 22051BC  24142.36661966  .00000364  00000-0  40942-4 0  9998,2 52586  53.2158 189.9548 0001439  85.8367 274.2790 15.08849773112423,6917.851,95.437,540.711,538.72,0.0
52586.0,STARLINK-3910,PAYLOAD,2024-05-22 02:17:10,15.0883736,0.0001498,53.2158,186.6857,92.762,267.3544,-0.00013866,-2.494e-05,0.0,0 STARLINK-3910,1 52586U 22051BC  24143.09526240 -.00002494  00000-0 -13866-3 0  9996,2 52586  53.2158 186.6857 0001498  92.7620 267.3544 15.08837360112535,6917.888,95.438,540.79,538.717,0.0
52586.0,STARLINK-3910,PAYLOAD,2024-05-22 11:49:29,15.08843823,0.0001438,53.2168,184.9023,85.1599,274.9558,-1.3489e-06,-3.09e-06,0.0,0 STARLINK-3910,1 52586U 22051BC  24143.49270542 -.00000309  00000-0 -13489-5 0  9997,2 52586  53.2168 184.9023 0001438  85.1599 274.9558 15.08843823112526,6917.869,95.437,540.728,538.739,0.0
52586.0,STARLINK-3910,PAYLOAD,2024-05-23 02:07:56,15.08852936,0.0001245,53.2166,182.2272,72.826,287.2868,0.00022927,3.364e-05,0.0,0 STARLINK-3910,1 52586U 22051BC  24144.08884772  .00003364  00000-0  22927-3 0  9996,2 52586  53.2166 182.2272 0001245  72.8260 287.2868 15.08852936112688,6917.841,95.437,540.567,538.845,0.0
52586.0,STARLINK-3910,PAYLOAD,2024-05-23 10:04:54,15.08823409,0.0001319,53.2167,180.7404,83.9189,276.1953,-4.4423e-05,-9.94e-06,0.0,0 STARLINK-3910,1 52586U 22051BC  24144.42007017 -.00000994  00000-0 -44423-4 0  9997,2 52586  53.2167 180.7404 0001319  83.9189 276.1953 15.08823409112735,6917.931,95.439,540.709,538.884,0.0
52586.0,STARLINK-3910,PAYLOAD,2024-05-24 01:58:45,15.08829107,0.0001168,53.2163,177.7655,93.5974,266.5152,-4.3467e-05,-9.79e-06,0.0,0 STARLINK-3910,1 52586U 22051BC  24145.08246939 -.00000979  00000-0 -43467-4 0  9998,2 52586  53.2163 177.7655 0001168  93.5974 266.5152 15.08829107112832,6917.914,95.438,540.587,538.971,0.0
52586.0,STARLINK-3910,PAYLOAD,2024-05-24 11:31:03,15.08838404,0.0001203,53.216,175.982,94.8248,265.2882,4.7761e-05,4.72e-06,0.0,0 STARLINK-3910,1 52586U 22051BC  24145.47990226  .00000472  00000-0  47761-4 0  9993,2 52586  53.2160 175.9820 0001203  94.8248 265.2882 15.08838404112893,6917.885,95.438,540.582,538.918,0.0
52586.0,STARLINK-3910,PAYLOAD,2024-05-24 19:27:59,15.08832671,5.84e-05,53.2165,174.4981,165.5993,194.5016,-2.5233e-05,-6.89e-06,0.0,0 STARLINK-3910,1 52586U 22051BC  24145.81110338 -.00000689  00000-0 -25233-4 0  9991,2 52586  53.2165 174.4981 0000584 165.5993 194.5016 15.08832671112875,6917.903,95.438,540.172,539.364,0.0
52586.0,STARLINK-3910,PAYLOAD,2024-05-25 08:11:04,15.08851479,0.0001215,53.2174,172.1177,95.6838,264.4293,-0.0002418,-4.135e-05,0.0,0 STARLINK-3910,1 52586U 22051BC  24146.34101852 -.00004135  00000-0 -24180-3 0  9990,2 52586  53.2174 172.1177 0001215  95.6838 264.4293 15.08851479112950,6917.845,95.437,540.551,538.87,0.0
52586.0,STARLINK-3910,PAYLOAD,2024-05-25 19:18:46,15.08822014,7.88e-05,53.216,170.039,106.9746,253.1332,0.0001482,2.071e-05,0.0,0 STARLINK-3910,1 52586U 22051BC  24146.80470889  .00002071  00000-0  14820-3 0  9995,2 52586  53.2160 170.0390 0000788 106.9746 253.1332 15.08822014113095,6917.935,95.439,540.345,539.255,0.0
